OBJECT_NAME,OBJECT_ID,EPOCH,MEAN_MOTION,ECCENTRICITY,INCLINATION,RA_OF_ASC_NODE,ARG_OF_PERICENTER,MEAN_ANOMALY,EPHEMERIS_TYPE,CLASSIFICATION_TYPE,NORAD_CAT_ID,ELEMENT_SET_NO,REV_AT_EPOCH,BSTAR,MEAN_MOTION_DOT,MEAN_MOTION_DDOT
HULIANWANG DIGUI-66,2025-174J,2026-07-23T19:25:17.364864,13.24407568,.0001918,86.4891,239.5326,102.5018,257.6330,0,U,65172,999,4563,.12529E-3,.68E-6,0
HULIANWANG DIGUI-67,2025-174K,2026-07-23T19:46:59.157984,13.24409113,.0001876,86.4903,239.5769,100.9803,259.1542,0,U,65173,999,4560,.1218E-3,.67E-6,0
STARLINK-34956,2025-175A,2026-07-23T20:00:01.999008,15.33457745,.0001396,97.2851,74.5904,82.2936,83.1917,0,U,65174,999,572,-.96248E-3,-.31033E-3,0
STARLINK-34949,2025-175B,2026-07-23T02:34:32.151648,15.33460570,.00002685,97.2866,73.9728,288.7362,71.3851,0,U,65175,999,5304,.68428224E-3,.22091E-3,0
STARLINK-34707,2025-175C,2026-07-23T20:00:01.999008,15.33446845,.0001519,97.2850,74.6092,86.4376,124.0525,0,U,65176,999,567,-.64753E-3,-.20924E-3,0
STARLINK-34967,2025-175D,2026-07-23T08:58:14.839968,15.33393930,.0001438,97.2869,74.2255,126.4633,233.6743,0,U,65177,999,5307,-.39511E-3,-.12789E-3,0
STARLINK-34929,2025-175E,2026-07-23T07:04:42.358080,15.33447079,.0001838,97.2855,74.1780,91.4183,268.7271,0,U,65178,999,5306,.26282E-3,.842E-4,0
STARLINK-34932,2025-175F,2026-07-23T20:00:01.999008,15.33427214,.0001142,97.2853,74.6419,99.5828,185.9594,0,U,65179,999,572,-.84867E-3,-.27359E-3,0
STARLINK-34862,2025-175G,2026-07-23T13:44:03.891264,15.33454608,.0002002,97.2869,74.4150,101.7747,258.3720,0,U,65180,999,5310,.58804E-3,.18963E-3,0
STARLINK-34942,2025-175H,2026-07-23T14:42:47.806848,15.33446201,.000215,97.2848,74.5104,93.5324,266.6165,0,U,65181,999,5308,.65984E-3,.21289E-3,0
STARLINK-34944,2025-175J,2026-07-23T13:47:57.522048,15.33477306,.000203,97.2868,74.4146,99.5557,260.5915,0,U,65182,999,5310,.65528E-3,.21161E-3,0
STARLINK-34939,2025-175K,2026-07-23T03:48:56.031840,15.33451896,.000164,97.2867,74.0572,105.7309,254.4115,0,U,65183,999,5301,.59703E-3,.19253E-3,0
STARLINK-34947,2025-175L,2026-07-23T20:00:01.999008,15.33413996,.0000798,97.2849,74.6010,92.6025,87.8486,0,U,65184,999,578,-.65455E-3,-.21127E-3,0
STARLINK-34945,2025-175M,2026-07-23T20:00:01.999008,15.33452615,.0001728,97.2849,74.6056,91.1103,104.3840,0,U,65185,999,568,-.10617E-2,-.34206E-3,0
STARLINK-34965,2025-175N,2026-07-23T05:26:49.206624,15.33428063,.0002607,97.2841,74.1197,78.8210,281.3325,0,U,65186,999,5305,.52836E-3,.17013E-3,0
STARLINK-34915,2025-175P,2026-07-23T20:00:01.999008,15.33439066,.0000823,97.2854,74.6194,113.2624,112.2480,0,U,65187,999,573,-.99129E-3,-.31937E-3,0
STARLINK-34972,2025-175Q,2026-07-23T16:00:01.998720,15.33439338,.0001915,97.2855,74.5264,86.8626,104.1734,0,U,65188,999,575,.13959E-3,.4433E-4,0
STARLINK-34866,2025-175R,2026-07-23T20:00:01.999008,15.33459255,.0001451,97.2853,74.6402,84.6314,185.8540,0,U,65189,999,573,-.11348E-2,-.36553E-3,0
STARLINK-34917,2025-175S,2026-07-23T20:00:01.999008,15.33431578,.0001421,97.2852,74.6345,84.9988,170.5437,0,U,65190,999,566,-.94996E-3,-.30607E-3,0
STARLINK-34948,2025-175T,2026-07-23T20:00:01.999008,15.33451217,.0000912,97.2856,74.6967,101.7708,318.7332,0,U,65191,999,572,-.97493E-3,-.31425E-3,0
STARLINK-34955,2025-175U,2026-07-23T20:00:01.999008,15.33450912,.0001115,97.2855,74.6649,95.2033,235.2969,0,U,65192,999,566,-.10204E-2,-.3288E-3,0
STARLINK-34950,2025-175V,2026-07-23T20:00:01.999008,15.33452674,.0001621,97.2854,74.6523,61.0480,239.4545,0,U,65193,999,572,-.10656E-2,-.34332E-3,0
STARLINK-34926,2025-175W,2026-07-23T20:00:01.999008,15.33460452,.000138,97.2853,74.6286,91.9988,148.5017,0,U,65194,999,572,-.21741E-2,-.69655E-3,0
STARLINK-34928,2025-175X,2026-07-23T20:00:01.999008,15.28413372,.0000825,97.2863,74.5781,122.9035,34.6649,0,U,65195,999,572,.12974E+0,.4074682E-1,0
STARLINK-34927,2025-175Y,2026-07-23T20:00:01.999008,15.33441967,.0001015,97.2855,74.6596,107.4082,208.1275,0,U,65196,999,567,-.10552E-2,-.33986E-3,0
STARLINK-34952,2025-175Z,2026-07-23T20:00:01.999008,15.33447515,.000196,97.2855,74.7091,98.2252,337.2807,0,U,65197,999,577,-.94994E-3,-.30623E-3,0
STARLINK-34981,2025-176A,2026-07-23T08:56:23.046144,15.30190648,.0000946,53.1579,245.3583,100.9752,259.1355,0,U,65198,999,5385,.57005E-3,.16557E-3,0
STARLINK-34821,2025-176B,2026-07-23T10:47:20.234400,15.34390295,.0001038,53.1571,239.4667,92.8254,267.2868,0,U,65199,999,5387,.4333E-3,.14287E-3,0
STARLINK-34865,2025-176C,2026-07-23T02:37:16.927680,15.34394811,.00015252,53.1570,241.6098,94.3883,265.7294,0,U,65200,999,5388,.67135566E-3,.22371E-3,0
STARLINK-34843,2025-176D,2026-07-23T12:42:20.323296,15.34374184,.000079,53.1570,239.2499,82.0767,278.0325,0,U,65201,999,5395,.73693E-3,.24583E-3,0
STARLINK-34905,2025-176E,2026-07-23T12:45:22.401792,15.34399816,.0000971,53.1563,239.2649,59.5445,300.5653,0,U,65202,999,5395,.76346E-3,.25506E-3,0
STARLINK-34914,2025-176F,2026-07-23T12:39:18.770112,15.34391919,.0001042,53.1575,239.2383,80.2678,279.8442,0,U,65203,999,5395,.7338E-3,.24491E-3,0
STARLINK-34787,2025-176G,2026-07-23T12:18:06.191424,15.34393032,.0001007,53.1573,239.1455,68.1367,291.9742,0,U,65204,999,5395,.10318E-2,.34637E-3,0
STARLINK-34796,2025-176H,2026-07-23T11:38:51.270432,15.34422688,.0001548,53.1577,239.6864,69.6315,290.4854,0,U,65205,999,5394,.75724E-3,.25313E-3,0
STARLINK-34763,2025-176J,2026-07-23T11:32:47.139360,15.34392350,.0001027,53.1573,239.6583,89.1758,270.9362,0,U,65206,999,5393,.56275E-3,.1868E-3,0
STARLINK-34901,2025-176K,2026-07-23T11:53:59.692128,15.34393165,.0001092,53.1573,239.7518,88.3433,271.7695,0,U,65207,999,5394,.87728E-3,.29374E-3,0
STARLINK-34841,2025-176L,2026-07-23T09:28:40.141056,15.34414164,.0000965,53.1563,239.8361,85.0441,275.0672,0,U,65208,999,5393,.12499E-3,.3851E-4,0
STARLINK-34976,2025-176M,2026-07-23T11:29:45.301056,15.34399998,.0001003,53.1574,239.6441,80.9775,279.1341,0,U,65209,999,5394,.3341E-3,.10928E-3,0
STARLINK-34941,2025-176N,2026-07-23T21:13:44.262048,15.34390789,.0001779,53.1573,237.9125,79.7458,280.3745,0,U,65210,999,5400,.76287E-3,.25479E-3,0
STARLINK-34847,2025-176P,2026-07-23T10:29:58.169184,15.34396849,.0001004,53.1595,241.5151,78.0457,282.0658,0,U,65211,999,5391,.66147E-3,.22036E-3,0
STARLINK-34897,2025-176Q,2026-07-23T11:20:39.914016,15.34396871,.0000693,53.1564,239.6059,81.6185,278.4896,0,U,65212,999,5394,.67905E-3,.22634E-3,0
STARLINK-34907,2025-176R,2026-07-23T07:15:38.110752,15.34398177,.0000788,53.1578,240.6748,100.9956,259.1135,0,U,65213,999,5391,.70556E-3,.23536E-3,0
STARLINK-34511,2025-176S,2026-07-23T21:10:42.949056,15.34397818,.0001612,53.1568,237.8996,37.9463,322.1653,0,U,65214,999,5394,.5582E-3,.18529E-3,0
STARLINK-33913,2025-176T,2026-07-23T11:33:35.569152,15.34392603,.000083,53.1565,241.7888,95.7030,264.4067,0,U,65215,999,5391,.74437E-3,.24851E-3,0
STARLINK-34302,2025-176U,2026-07-23T11:26:43.529280,15.34393881,.000093,53.1573,239.6332,85.3851,274.7258,0,U,65216,999,5394,.52241E-3,.17311E-3,0
STARLINK-34871,2025-176V,2026-07-23T07:45:48.279744,15.34391370,.0000971,53.1564,240.0968,64.5050,295.6053,0,U,65217,999,5392,.68075E-3,.22688E-3,0
STARLINK-34833,2025-176W,2026-07-23T08:37:18.746400,15.34397648,.0000874,53.1589,240.3181,84.9158,275.1944,0,U,65218,999,5392,.66553E-3,.22175E-3,0
STARLINK-34960,2025-176X,2026-07-23T09:04:35.843232,15.34396301,.0001333,53.1579,240.4369,78.5688,281.5464,0,U,65219,999,5392,.74423E-3,.24849E-3,0
STARLINK-34603,2025-176Y,2026-07-23T09:25:39.624672,15.34391867,.0001218,53.1576,239.8207,85.3945,274.7197,0,U,65220,999,5393,.57553E-3,.19114E-3,0
STARLINK-34974,2025-176Z,2026-07-23T09:40:48.468000,15.34380268,.0001489,53.1571,239.8801,94.6500,265.4673,0,U,65221,999,5393,.65702E-3,.21873E-3,0
STARLINK-34999,2025-176AA,2026-07-23T12:09:09.949824,15.34352845,.0000943,53.1582,239.8161,75.6792,284.4315,0,U,65222,999,5394,.8268E-3,.2762E-3,0
STARLINK-34996,2025-176AB,2026-07-23T12:06:06.698016,15.34391656,.0000701,53.1583,239.7998,18.7281,341.3748,0,U,65223,999,5394,.89295E-3,.29906E-3,0
STARLINK-34975,2025-176AC,2026-07-23T11:35:49.252416,15.34383929,.000108,53.1570,239.6683,80.7265,279.3859,0,U,65224,999,5394,.5069E-3,.1678E-3,0
STARLINK-34257,2025-176AD,2026-07-23T14:49:28.015968,15.34401213,.0001137,53.1581,239.0837,85.6937,274.4195,0,U,65225,999,5390,.45396E-3,.14993E-3,0
SHIYAN-28B 02,2025-177A,2026-07-23T21:04:56.436672,14.29408357,.0003172,11.0003,54.6276,44.2666,315.7815,0,U,65226,999,4879,.53853E-4,.571E-5,0
SKYKRAFT-4E,2025-154L,2026-07-23T15:44:51.734112,14.98326220,.0007096,97.6660,268.8097,131.6559,228.5273,0,U,65227,999,5279,.63598E-3,.7522E-4,0
HULIANWANG DIGUI-68,2025-178A,2026-07-23T20:19:25.831200,13.24411485,.0001954,86.4998,1.1480,91.2026,268.9332,0,U,65228,999,4516,.11659E-3,.65E-6,0
HULIANWANG DIGUI-69,2025-178B,2026-07-23T20:08:41.967168,13.24412899,.0001866,86.5018,1.2127,92.5103,267.6245,0,U,65229,999,4516,.95183E-4,.56E-6,0
HULIANWANG DIGUI-70,2025-178C,2026-07-23T19:57:49.070880,13.24411921,.000193,86.4957,1.0011,89.8078,270.3277,0,U,65230,999,4516,.42962E-4,.33E-6,0
HULIANWANG DIGUI-71,2025-178D,2026-07-23T19:46:57.924192,13.24411686,.0001908,86.5015,1.1973,90.6873,269.4480,0,U,65231,999,4516,.47118E-4,.35E-6,0
HULIANWANG DIGUI-72,2025-178E,2026-07-23T19:36:05.523840,13.24411179,.0001925,86.4999,1.1350,90.8712,269.2642,0,U,65232,999,4516,.26075E-4,.26E-6,0
STARLINK-34842,2025-179A,2026-07-23T20:00:01.999008,15.33457625,.0001639,97.2848,245.0317,89.7833,285.1608,0,U,65235,999,566,-.52714E-3,-.17062E-3,0
STARLINK-34938,2025-179B,2026-07-23T09:25:46.777728,15.33440142,.0001037,97.2855,244.5512,77.9639,282.1720,0,U,65236,999,5230,.63797E-3,.20574E-3,0
STARLINK-34958,2025-179C,2026-07-23T01:51:36.242784,15.33464248,.00018044,97.2811,244.2131,113.9138,246.2294,0,U,65237,999,5235,.92964628E-3,.30076E-3,0
STARLINK-34818,2025-179D,2026-07-23T20:00:01.999008,15.33465228,.0001339,97.2852,244.9290,92.4498,27.5966,0,U,65238,999,578,-.11139E-3,-.3672E-4,0
